OPS 6582 (TRANSIT 5B-5) 
1 00965U 64083D   21161.65802628  .00000044  00000-0  49313-4 0  9991
2 00965  90.0199 194.4165 0039138 234.1482 245.0790 13.56756782795107
OSCAR 7 (AO-7)          
1 07530U 74089B   21161.86575078 -.00000053  00000-0 -49169-4 0  9993
2 07530 101.8534 136.3754 0012558  36.2644  20.6006 12.53649018130900
UOSAT 2 (UO-11)         
1 14781U 84021B   21161.71574805  .00000101  00000-0  18364-4 0  9992
2 14781  97.5921 161.8892 0009985 101.6507 258.5829 14.83291050984937
NOAA 9                  
1 15427U 84123A   21161.81714392 -.00000008  00000-0  18825-4 0  9990
2 15427  98.9935 124.5149 0015491 136.4406 281.5023 14.16134419884010
LUSAT (LO-19)           
1 20442U 90005G   21161.78405217 -.00000018  00000-0  10147-4 0  9998
2 20442  98.7411 117.1895 0011742 175.2759 184.8538 14.32988267639877
ITAMSAT (IO-26)         
1 22826U 93061D   21161.77385931 -.00000003  00000-0  16760-4 0  9991
2 22826  98.9113 179.1354 0009766  46.8057 313.3939 14.30455525445278
RADIO ROSTO (RS-15)     
1 23439U 94085A   21161.87387645 -.00000037  00000-0  15882-3 0  9994
2 23439  64.8195  26.6038 0161048 336.5532  22.8101 11.27570552 89598
JAS-2 (FO-29)           
1 24278U 96046B   21161.79473532 -.00000041  00000-0 -66156-5 0  9995
2 24278  98.5673 230.6547 0350675 166.7446 194.3206 13.53104758225348
NOAA 15                 
1 25338U 98030A   21162.19200390  .00000080  00000-0  51909-4 0  9993
2 25338  98.6817 190.7731 0009304 302.5903  57.4378 14.26036376200350
TECHSAT 1B (GO-32)      
1 25397U 98043D   21161.79969623 -.00000022  00000-0  98952-5 0  9995
2 25397  98.7710 107.3697 0002392  95.5533 264.5918 14.23709463190542
ISS (ZARYA)             
1 25544U 98067A   21162.24455464  .00001369  00000-0  33046-4 0  9995
2 25544  51.6454  12.1174 0003601  83.6963  83.5732 15.48975526287678
ORSTED                  
1 25635U 99008B   21161.80664732  .00000051  00000-0  20099-4 0  9994
2 25635  96.4757 107.9937 0136909 287.2719  71.3537 14.48294770176489
PHASE 3D (AO-40)        
1 26609U 00072B   21160.15607379 -.00000262  00000-0  00000-0 0  9991
2 26609   9.1741 325.1157 7947165 261.7109  12.0210  1.25587088 94481
PCSAT (NO-44)           
1 26931U 01043C   21161.74603288 -.00000045  00000-0  14687-4 0  9998
2 26931  67.0516 297.7466 0006493 261.1883  98.8483 14.30621250 28239
SAUDISAT 1C (SO-50)     
1 27607U 02058C   21161.79508463  .00000000  00000-0  20371-4 0  9997
2 27607  64.5561 358.7073 0039821  23.3173 336.9724 14.75755090993565
CUTE-1 (CO-55)          
1 27844U 03031E   21161.58224615  .00000045  00000-0  39804-4 0  9993
2 27844  98.6793 169.8996 0011150  97.9973 262.2470 14.22313262931001
CUBESAT XI-IV (CO-57)   
1 27848U 03031J   21161.57338627  .00000035  00000-0  35813-4 0  9990
2 27848  98.6850 170.4557 0010953 109.7968 250.4391 14.21889770930838
MOZHAYETS 4 (RS-22)     
1 27939U 03042A   21162.03860858  .00000054  00000-0  18318-4 0  9993
2 27939  98.1406 299.1786 0011687 303.5590  56.4475 14.66989313946583
INMARSAT 4-F1           
1 28628U 05009A   21161.76902014 -.00000250  00000-0  00000-0 0  9998
2 28628   3.3645  31.0102 0002715  54.9948 233.6673  1.00272546 59292
NOAA 18                 
1 28654U 05018A   21162.00047966  .00000073  00000-0  64142-4 0  9994
2 28654  98.9939 226.8391 0013234 302.4193  57.5697 14.12612928827620
CUBESAT XI-V            
1 28895U 05043F   21161.79588915  .00000129  00000-0  33624-4 0  9991
2 28895  98.0581 295.1798 0015758 228.0231 131.9630 14.63918026833030
METOP-A                 
1 29499U 06044A   21162.00618385  .00000003  00000-0  20503-4 0  9997
2 29499  98.4718 201.5337 0000866  73.4745  47.8707 14.21501095759825
CARTOSAT-2 (IRS-P7)     
1 29710U 07001B   21161.77925557  .00001357  00000-0  44528-4 0  9998
2 29710  97.8748 243.8526 0169365 270.3187  87.8642 15.21093164779631
FALCONSAT-3             
1 30776U 07006E   21162.01388548  .00003030  00000-0  73557-4 0  9992
2 30776  35.4327 141.6112 0003344 224.9543 135.0914 15.40719062792116
CAPE-1                  
1 31130U 07012P   21161.80216937  .00000137  00000-0  39649-4 0  9991
2 31130  98.2337 100.9934 0096087   5.8150 354.4139 14.56686507750983
CARTOSAT-2A             
1 32783U 08021A   21162.04746487 -.00000152  00000-0 -13695-4 0  9994
2 32783  97.8729 221.4151 0011298 290.2192  69.7813 14.78715741708137
CUTE-1.7+APD II (CO-65) 
1 32785U 08021C   21161.74545083  .00000243  00000-0  31669-4 0  9991
2 32785  97.6106 140.8485 0013810  31.6758 328.5287 14.88725335711177
COMPASS-1               
1 32787U 08021E   21161.69788270  .00000302  00000-0  33325-4 0  9991
2 32787  97.5286 152.9144 0011167 318.3606  41.6764 14.94129600712526
AAUSAT-II               
1 32788U 08021F   21161.73188595  .00001014  00000-0  96266-4 0  9995
2 32788  97.5045 156.6708 0010038 296.8327  63.1867 14.95588283712859
DELFI-C3 (DO-64)        
1 32789U 08021G   21161.71762385  .00001790  00000-0  11695-3 0  9992
2 32789  97.3759 197.3435 0012454 157.8559 202.3211 15.08977018715818
SEEDS II (CO-66)        
1 32791U 08021J   21161.72010390  .00000377  00000-0  43050-4 0  9999
2 32791  97.5704 146.7433 0013061 356.1311   3.9805 14.91410555711778
YUBILEINY (RS-30)       
1 32953U 08025A   21162.03066651  .00000028  00000-0  12906-3 0  9997
2 32953  82.5050  54.9247 0020041 354.1504   5.9335 12.43102071592185
FENGYUN 3A              
1 32958U 08026A   21161.85633048 -.00000022  00000-0  91711-5 0  9990
2 32958  98.4496 135.8471 0009264  25.7656 334.3980 14.18658718675647
PRISM (HITOMI)          
1 33493U 09002B   21161.84778468  .00001253  00000-0  11245-3 0  9993
2 33493  98.1891 124.0705 0013426 314.4804  45.5319 14.97670853673349
STARS (KUKAI)           
1 33498U 09002G   21161.63393887  .00000209  00000-0  35513-4 0  9998
2 33498  98.2148  41.5546 0011309  15.3852 344.7700 14.79356002666453
KKS-1 (KISEKI)          
1 33499U 09002H   21161.75873770  .00000102  00000-0  22813-4 0  9997
2 33499  98.2696  31.5821 0010349  65.7271 294.5018 14.75662389665428
NOAA 19                 
1 33591U 09005A   21162.03392558  .00000072  00000-0  64177-4 0  9990
2 33591  99.1831 182.5808 0014536 147.1540 213.0537 14.12473902636017
SWISSCUBE               
1 35932U 09051B   21161.96638962  .00000132  00000-0  40616-4 0  9994
2 35932  98.6030   1.7838 0008766 105.1011 255.1156 14.56539142622053
BEESAT-1                
1 35933U 09051C   21162.00096475  .00000110  00000-0  35710-4 0  9993
2 35933  98.5994   3.6401 0006857 115.0828 245.1082 14.56596493622176
ITUPSAT1                
1 35935U 09051E   21161.79508171  .00000095  00000-0  33005-4 0  9998
2 35935  98.6099   3.5673 0009126 117.9568 242.2554 14.55728860621804
XIWANG-1 (HOPE-1)       
1 36122U 09072B   21161.76509657 -.00000023  00000-0  51996-4 0  9998
2 36122 100.1307 142.7066 0008099 115.6761 244.5190 13.16361072552015
CARTOSAT-2B             
1 36795U 10035A   21162.15121589  .00000075  00000-0  17238-4 0  9990
2 36795  97.8700 220.9120 0013871   9.5914 350.5566 14.78715552589194
TISAT 1                 
1 36799U 10035E   21161.74354122  .00000573  00000-0  62996-4 0  9993
2 36799  98.2058 352.2898 0010995 231.8771 128.1456 14.91741305592332
FENGYUN 3B              
1 37214U 10059A   21162.24190176  .00000000  00000-0  23528-4 0  9998
2 37214  99.0792 156.2156 0016630 335.0206  25.0164 14.15988693548454
JUGNU                   
1 37839U 11058B   21161.97751330  .00000311  00000-0  23987-4 0  9999
2 37839  19.9610 268.4764 0019069  21.2428 133.2568 14.12716240499658
SRMSAT                  
1 37841U 11058D   21161.85944153  .00000305  00000-0  22587-4 0  9994
2 37841  19.9737 340.9328 0011845 221.3980 275.7065 14.10696903498927
M-CUBED & EXP-1 PRIME   
1 37855U 11061F   21161.98597993  .00001914  00000-0  98702-4 0  9992
2 37855 101.7134  82.0316 0167063  89.8965 272.1390 15.07646290525674
HORYU-2                 
1 38340U 12025D   21161.77297789  .00000183  00000-0  34376-4 0  9994
2 38340  98.2328 229.0079 0010879 343.6625  16.4231 14.76046355477405
METOP-B                 
1 38771U 12049A   21161.97521477  .00000004  00000-0  22059-4 0  9991
2 38771  98.7150 222.1342 0001984  65.9317 349.4321 14.21484009452951
SARAL                   
1 39086U 13009A   21161.75255192 -.00000010  00000-0  12628-4 0  9991
2 39086  98.5460 347.9017 0000338  67.6304 292.4915 14.32053664433287
AAUSAT 3                
1 39087U 13009B   21162.03700395  .00000124  00000-0  57500-4 0  9997
2 39087  98.4253   5.4789 0011745 298.3005  61.6992 14.35938630434273
STRAND-1                
1 39090U 13009E   21161.85298795 -.00000217  00000-0 -60801-4 0  9999
2 39090  98.4284   4.2125 0008176 302.9413  57.0986 14.35175052434117
BRITE-AUSTRIA           
1 39091U 13009F   21161.55891460  .00000001  00000-0  15378-4 0  9993
2 39091  98.4283   3.0574 0009549 310.5398  49.4956 14.35189995434094
UNIBRITE                
1 39092U 13009G   21161.54719281  .00000024  00000-0  23408-4 0  9991
2 39092  98.4312   2.7513 0008392 305.4266  54.6135 14.35060721434057
SOMP                    
1 39134U 13015E   21161.81069916  .00001289  00000-0  64074-4 0  9996
2 39134  64.8612 194.0686 0007882 311.0346  49.0100 15.22577774450589
BEESAT-3                
1 39135U 13015F   21161.53281081  .00000872  00000-0  50363-4 0  9998
2 39135  64.8661 224.0474 0002509 323.2652  36.8303 15.19377904449563
BEESAT-2                
1 39136U 13015G   21161.59361663  .00001136  00000-0  63795-4 0  9997
2 39136  64.8742 230.2118 0023448 247.3240 112.5407 15.18735903449420
NEE-01 PEGASO           
1 39151U 13018B   21162.00391569  .00000148  00000-0  26328-4 0  9995
2 39151  97.9791 264.4961 0017434  23.7686 336.4327 14.80352770438725
CUBEBUG-1 (CAPITAN BETO)
1 39153U 13018D   21162.02396685  .00000167  00000-0  28507-4 0  9995
2 39153  97.9941 267.7499 0017160  19.1457 341.0396 14.80934445438854
